<?xml version="1.0" encoding="UTF-8"?>
<ndm xmlns:xsi="http://www.w3.org/2001/XMLSchema-instance" xsi:noNamespaceSchemaLocation="https://sanaregistry.org/r/ndmxml_unqualified/ndmxml-2.0.0-master-2.0.xsd">
<omm id="CCSDS_OMM_VERS" version="2.0">
<header><CREATION_DATE/><ORIGINATOR/></header><body><segment><metadata><OBJECT_NAME>IRIDIUM 26</OBJECT_NAME><OBJECT_ID>1997-043A</OBJECT_ID><CENTER_NAME>EARTH</CENTER_NAME><REF_FRAME>TEME</REF_FRAME><TIME_SYSTEM>UTC</TIME_SYSTEM><MEAN_ELEMENT_THEORY>SGP4</MEAN_ELEMENT_THEORY></metadata><data><meanElements><EPOCH>2025-08-17T00:55:58.471680</EPOCH><MEAN_MOTION>14.37183044</MEAN_MOTION><ECCENTRICITY>.0001942</ECCENTRICITY><INCLINATION>86.3909</INCLINATION><RA_OF_ASC_NODE>85.0491</RA_OF_ASC_NODE><ARG_OF_PERICENTER>89.9785</ARG_OF_PERICENTER><MEAN_ANOMALY>270.1635</MEAN_ANOMALY></meanElements><tleParameters><EPHEMERIS_TYPE>0</EPHEMERIS_TYPE><CLASSIFICATION_TYPE>U</CLASSIFICATION_TYPE><NORAD_CAT_ID>24903</NORAD_CAT_ID><ELEMENT_SET_NO>999</ELEMENT_SET_NO><REV_AT_EPOCH>46595</REV_AT_EPOCH><BSTAR>.96006E-4</BSTAR><MEAN_MOTION_DOT>.305E-5</MEAN_MOTION_DOT><MEAN_MOTION_DDOT>0</MEAN_MOTION_DDOT></tleParameters></data></segment></body></omm>
<omm id="CCSDS_OMM_VERS" version="2.0">
<header><CREATION_DATE/><ORIGINATOR/></header><body><segment><metadata><OBJECT_NAME>IRIDIUM 22</OBJECT_NAME><OBJECT_ID>1997-043E</OBJECT_ID><CENTER_NAME>EARTH</CENTER_NAME><REF_FRAME>TEME</REF_FRAME><TIME_SYSTEM>UTC</TIME_SYSTEM><MEAN_ELEMENT_THEORY>SGP4</MEAN_ELEMENT_THEORY></metadata><data><meanElements><EPOCH>2025-08-17T08:49:10.577856</EPOCH><MEAN_MOTION>14.35991784</MEAN_MOTION><ECCENTRICITY>.000214</ECCENTRICITY><INCLINATION>86.3915</INCLINATION><RA_OF_ASC_NODE>88.5056</RA_OF_ASC_NODE><ARG_OF_PERICENTER>90.2520</ARG_OF_PERICENTER><MEAN_ANOMALY>269.8922</MEAN_ANOMALY></meanElements><tleParameters><EPHEMERIS_TYPE>0</EPHEMERIS_TYPE><CLASSIFICATION_TYPE>U</CLASSIFICATION_TYPE><NORAD_CAT_ID>24907</NORAD_CAT_ID><ELEMENT_SET_NO>999</ELEMENT_SET_NO><REV_AT_EPOCH>46554</REV_AT_EPOCH><BSTAR>.969E-4</BSTAR><MEAN_MOTION_DOT>.301E-5</MEAN_MOTION_DOT><MEAN_MOTION_DDOT>0</MEAN_MOTION_DDOT></tleParameters></data></segment></body></omm>
<omm id="CCSDS_OMM_VERS" version="2.0">
<header><CREATION_DATE/><ORIGINATOR/></header><body><segment><metadata><OBJECT_NAME>DUMMY MASS 1</OBJECT_NAME><OBJECT_ID>1997-048A</OBJECT_ID><CENTER_NAME>EARTH</CENTER_NAME><REF_FRAME>TEME</REF_FRAME><TIME_SYSTEM>UTC</TIME_SYSTEM><MEAN_ELEMENT_THEORY>SGP4</MEAN_ELEMENT_THEORY></metadata><data><meanElements><EPOCH>2025-08-17T09:14:54.114720</EPOCH><MEAN_MOTION>14.87028472</MEAN_MOTION><ECCENTRICITY>.0004451</ECCENTRICITY><INCLINATION>86.3329</INCLINATION><RA_OF_ASC_NODE>107.0361</RA_OF_ASC_NODE><ARG_OF_PERICENTER>300.5966</ARG_OF_PERICENTER><MEAN_ANOMALY>59.4819</MEAN_ANOMALY></meanElements><tleParameters><EPHEMERIS_TYPE>0</EPHEMERIS_TYPE><CLASSIFICATION_TYPE>U</CLASSIFICATION_TYPE><NORAD_CAT_ID>24925</NORAD_CAT_ID><ELEMENT_SET_NO>999</ELEMENT_SET_NO><REV_AT_EPOCH>51446</REV_AT_EPOCH><BSTAR>.32307E-4</BSTAR><MEAN_MOTION_DOT>.318E-5</MEAN_MOTION_DOT><MEAN_MOTION_DDOT>0</MEAN_MOTION_DDOT></tleParameters></data></segment></body></omm>
<omm id="CCSDS_OMM_VERS" version="2.0">
<header><CREATION_DATE/><ORIGINATOR/></header><body><segment><metadata><OBJECT_NAME>DUMMY MASS 2</OBJECT_NAME><OBJECT_ID>1997-048B</OBJECT_ID><CENTER_NAME>EARTH</CENTER_NAME><REF_FRAME>TEME</REF_FRAME><TIME_SYSTEM>UTC</TIME_SYSTEM><MEAN_ELEMENT_THEORY>SGP4</MEAN_ELEMENT_THEORY></metadata><data><meanElements><EPOCH>2025-08-17T10:11:59.901504</EPOCH><MEAN_MOTION>14.86780510</MEAN_MOTION><ECCENTRICITY>.0005504</ECCENTRICITY><INCLINATION>86.3333</INCLINATION><RA_OF_ASC_NODE>108.6372</RA_OF_ASC_NODE><ARG_OF_PERICENTER>314.7474</ARG_OF_PERICENTER><MEAN_ANOMALY>45.3302</MEAN_ANOMALY></meanElements><tleParameters><EPHEMERIS_TYPE>0</EPHEMERIS_TYPE><CLASSIFICATION_TYPE>U</CLASSIFICATION_TYPE><NORAD_CAT_ID>24926</NORAD_CAT_ID><ELEMENT_SET_NO>999</ELEMENT_SET_NO><REV_AT_EPOCH>51424</REV_AT_EPOCH><BSTAR>.32512E-4</BSTAR><MEAN_MOTION_DOT>.318E-5</MEAN_MOTION_DOT><MEAN_MOTION_DDOT>0</MEAN_MOTION_DDOT></tleParameters></data></segment></body></omm>
<omm id="CCSDS_OMM_VERS" version="2.0">
<header><CREATION_DATE/><ORIGINATOR/></header><body><segment><metadata><OBJECT_NAME>IRIDIUM 29</OBJECT_NAME><OBJECT_ID>1997-051A</OBJECT_ID><CENTER_NAME>EARTH</CENTER_NAME><REF_FRAME>TEME</REF_FRAME><TIME_SYSTEM>UTC</TIME_SYSTEM><MEAN_ELEMENT_THEORY>SGP4</MEAN_ELEMENT_THEORY></metadata><data><meanElements><EPOCH>2025-08-17T10:31:01.295616</EPOCH><MEAN_MOTION>14.36509772</MEAN_MOTION><ECCENTRICITY>.0002368</ECCENTRICITY><INCLINATION>86.3960</INCLINATION><RA_OF_ASC_NODE>118.2154</RA_OF_ASC_NODE><ARG_OF_PERICENTER>85.1756</ARG_OF_PERICENTER><MEAN_ANOMALY>274.9711</MEAN_ANOMALY></meanElements><tleParameters><EPHEMERIS_TYPE>0</EPHEMERIS_TYPE><CLASSIFICATION_TYPE>U</CLASSIFICATION_TYPE><NORAD_CAT_ID>24944</NORAD_CAT_ID><ELEMENT_SET_NO>999</ELEMENT_SET_NO><REV_AT_EPOCH>46228</REV_AT_EPOCH><BSTAR>.10068E-3</BSTAR><MEAN_MOTION_DOT>.315E-5</MEAN_MOTION_DOT><MEAN_MOTION_DDOT>0</MEAN_MOTION_DDOT></tleParameters></data></segment></body></omm>
<omm id="CCSDS_OMM_VERS" version="2.0">
<header><CREATION_DATE/><ORIGINATOR/></header><body><segment><metadata><OBJECT_NAME>IRIDIUM 33</OBJECT_NAME><OBJECT_ID>1997-051C</OBJECT_ID><CENTER_NAME>EARTH</CENTER_NAME><REF_FRAME>TEME</REF_FRAME><TIME_SYSTEM>UTC</TIME_SYSTEM><MEAN_ELEMENT_THEORY>SGP4</MEAN_ELEMENT_THEORY></metadata><data><meanElements><EPOCH>2025-08-17T10:01:24.464928</EPOCH><MEAN_MOTION>14.34924734</MEAN_MOTION><ECCENTRICITY>.0006025</ECCENTRICITY><INCLINATION>86.3875</INCLINATION><RA_OF_ASC_NODE>117.4893</RA_OF_ASC_NODE><ARG_OF_PERICENTER>229.2876</ARG_OF_PERICENTER><MEAN_ANOMALY>130.7797</MEAN_ANOMALY></meanElements><tleParameters><EPHEMERIS_TYPE>0</EPHEMERIS_TYPE><CLASSIFICATION_TYPE>U</CLASSIFICATION_TYPE><NORAD_CAT_ID>24946</NORAD_CAT_ID><ELEMENT_SET_NO>999</ELEMENT_SET_NO><REV_AT_EPOCH>46153</REV_AT_EPOCH><BSTAR>.75729E-4</BSTAR><MEAN_MOTION_DOT>.235E-5</MEAN_MOTION_DOT><MEAN_MOTION_DDOT>0</MEAN_MOTION_DDOT></tleParameters></data></segment></body></omm>
<omm id="CCSDS_OMM_VERS" version="2.0">
<header><CREATION_DATE/><ORIGINATOR/></header><body><segment><metadata><OBJECT_NAME>IRIDIUM 28</OBJECT_NAME><OBJECT_ID>1997-051E</OBJECT_ID><CENTER_NAME>EARTH</CENTER_NAME><REF_FRAME>TEME</REF_FRAME><TIME_SYSTEM>UTC</TIME_SYSTEM><MEAN_ELEMENT_THEORY>SGP4</MEAN_ELEMENT_THEORY></metadata><data><meanElements><EPOCH>2025-08-16T16:14:43.125792</EPOCH><MEAN_MOTION>14.37420827</MEAN_MOTION><ECCENTRICITY>.000168</ECCENTRICITY><INCLINATION>86.3962</INCLINATION><RA_OF_ASC_NODE>116.0153</RA_OF_ASC_NODE><ARG_OF_PERICENTER>91.7505</ARG_OF_PERICENTER><MEAN_ANOMALY>268.3885</MEAN_ANOMALY></meanElements><tleParameters><EPHEMERIS_TYPE>0</EPHEMERIS_TYPE><CLASSIFICATION_TYPE>U</CLASSIFICATION_TYPE><NORAD_CAT_ID>24948</NORAD_CAT_ID><ELEMENT_SET_NO>999</ELEMENT_SET_NO><REV_AT_EPOCH>46260</REV_AT_EPOCH><BSTAR>.78359E-4</BSTAR><MEAN_MOTION_DOT>.254E-5</MEAN_MOTION_DOT><MEAN_MOTION_DDOT>0</MEAN_MOTION_DDOT></tleParameters></data></segment></body></omm>
<omm id="CCSDS_OMM_VERS" version="2.0">
<header><CREATION_DATE/><ORIGINATOR/></header><body><segment><metadata><OBJECT_NAME>IRIDIUM 36</OBJECT_NAME><OBJECT_ID>1997-056C</OBJECT_ID><CENTER_NAME>EARTH</CENTER_NAME><REF_FRAME>TEME</REF_FRAME><TIME_SYSTEM>UTC</TIME_SYSTEM><MEAN_ELEMENT_THEORY>SGP4</MEAN_ELEMENT_THEORY></metadata><data><meanElements><EPOCH>2025-08-17T12:51:13.971168</EPOCH><MEAN_MOTION>14.37648933</MEAN_MOTION><ECCENTRICITY>.0002182</ECCENTRICITY><INCLINATION>86.4022</INCLINATION><RA_OF_ASC_NODE>147.2515</RA_OF_ASC_NODE><ARG_OF_PERICENTER>92.2477</ARG_OF_PERICENTER><MEAN_ANOMALY>267.8970</MEAN_ANOMALY></meanElements><tleParameters><EPHEMERIS_TYPE>0</EPHEMERIS_TYPE><CLASSIFICATION_TYPE>U</CLASSIFICATION_TYPE><NORAD_CAT_ID>24967</NORAD_CAT_ID><ELEMENT_SET_NO>999</ELEMENT_SET_NO><REV_AT_EPOCH>46103</REV_AT_EPOCH><BSTAR>.85934E-4</BSTAR><MEAN_MOTION_DOT>.278E-5</MEAN_MOTION_DOT><MEAN_MOTION_DDOT>0</MEAN_MOTION_DDOT></tleParameters></data></segment></body></omm>

</ndm>
